2023/05/13 04:20
VEJH 130930Z 09008KT 5000 HZ SCT020 BKN100 39/12 Q1003

2023/05/13 17:00
K7W4 130935Z AUTO 10SM OVC110 20/16 A3004 RMK AO1 T02000159

2023/05/09 22:15
KMHP 130935Z AUTO 00000KT 10SM OVC004 19/ A3009 RMK AO2 T0193////

2023/05/17 11:30
KSBO 130935Z AUTO 29003KT 4SM HZ OVC003 A3010 RMK AO2

2023/04/29 08:30
KSBO 131215Z AUTO 29003KT 2SM BR OVC003 A3016 RMK AO2

2023/06/02 05:15
CWDQ 231200Z AUTO 30009G15KT 08/02 RMK AO1 SLP175 T00800020 51006

2022/12/30 23:00
KMDQ 122035Z AUTO 10SM -RA OVC100 21/19 A3018 RMK A02 T02100193

2024/01/05 12:00
KD73 241155Z AUTO 00000KT 3/4SM BR OVC003 18/ A3017 RMK AO2 T0180//// 10189 20179 70005

2023/04/30 10:00
MHLE 311200Z 00000KT 3000 BR NSC 16/15
