2023/05/13 06:30
LFMC 130630Z AUTO VRB01KT 8000 ////// 11/10 Q1016

2023/05/12 21:05
KDPL 122105Z AUTO 19005KT 7SM CLR 28/14 A3014 RMK AO2

2023/05/12 16:43
MMVR 121643Z 17007KT 4SM SKC 35/24 A2979 RMK HZY

2023/05/12 21:00
DRRN 122100Z 23003KT CAVOK 31/20 Q1011 NOSIG

2023/05/12 21:00
GGOV 122100Z 26005KT 210V320 8000 NSC 27/23 Q1010 NOSIG

2023/05/12 20:50
LSMD 122050Z AUTO 10003KT 040V170 9999NDV NCD 12/08 Q1015 RMK

2023/05/12 20:55
PATC 122055Z AUTO 20017KT M1/4SM -SN FZFG VV002 M05/M06 A2994

2023/05/12 20:55
LIVR 122055Z 14007KT 0000 -SN FG VV/// 01/M00 Q1016

2023/05/12 21:00
USDA 122100Z AUTO 20009MPS 1000 0600NW R22/0600N // ///003/// M15/M17 Q1012 RMK QFE758/1011

2023/05/12 21:05
KW40 122105Z AUTO 18008KT 10SM SCT060 27/15 A3013 RMK AO2 T02740148

2023/05/12 21:00
WAPP 122100Z 17010KT 120V210 2000 TSRA FEW015CB BKN016 26/24 Q1010 NOSIG RMK CB TO E AND S

2023/05/12 21:00
TNCM 122100Z 09010KT 9999 FEW016 FEW///CB BKN030 28/21 Q1016 NOSIG RMK CB W+NNW

2023/05/12 21:00
SBPL 122100Z 27002KT 9999 -RA SCT025 SCT035 FEW037TCU BKN070 28/21 Q1013

2023/05/12 15:50
K1EN 121550Z AUTO 06015G21KT 10SM FEW006 SCT021 BKN028 BKN100 BKN120 13/11 A2982 RMK AO2 CIG 028V100 BKN028 V SCT SLP110 $

2023/05/13 05:52
KHLR 130552Z AUTO 28011G20KT 6SM -TSRA BR FEW003 SCT019 BKN026 BKN031 BKN041 OVC055 19/17 A3002 RMK AO2 RAB38 TSB52 CIG 026V042 SLP156

2023/05/02 12:00
SARL 021200Z 27006KT 8000 -RA SCT008 OVC35 23/23 Q1011

2023/05/02 12:00
VVCT 021200Z 10007KT 8000 FEW015 FEW017TU 27/21 Q1012 NOSIG
