2023/05/13 05:45
KAHN 130545Z AUTO 00000KT 3SM BR CLR 19/18 A3013 RMK AO2

2023/05/13 05:45
KCOT 130545Z AUTO 35012G22KT 10SM -RA SCT013 BKN024 OVC110 22/19 A2988 RMK AO2 PK WND 30031/0522 WSHFT 0519 LTG DSNT NW-E P0004 T02170194

2023/05/13 05:45
KCSM 130545Z 01009KT 9SM TS FEW033 BKN070 BKN090 17/15 A2997 RMK AO2 PK WND 27026/0513 WSHFT 0525 RAB02E42 TSB22 P0029 T01720150

2023/05/13 05:46
KPPF 130546Z AUTO 33016G37KT 1 3/4SM +TSRA FEW017 BKN042 OVC048 19/17 A2996 RMK AO2 PK WND 35037/0538 LTG DSNT ALQDS P0029

2023/05/13 06:00
OJAQ 130600Z 35010KT 5000 HZ NSC 23/12 Q1017 NOSIG

2023/05/13 05:48
CYAH 130548Z AUTO 28006KT 2 1/2SM -SN FEW005 OVC025 M01/M02 A2989 RMK VIS VRB 1 3/4-3 SLP144

2023/05/13 05:48
KILE 130548Z AUTO 27011G24KT 5SM VCTS HZ FEW022 SCT034 OVC050 A3001 RMK AO2 PK WND 26038/0536 WSHFT 0521 LTG DSNT ALQDS TSB42 P0001 FZRANO $

2023/05/13 05:46
YSSY 130546Z 13011KT 9999 -SHRA VCTS FEW020 SCT095 BKN210 FEW035CB 19/13 Q1029

2023/05/13 06:00
ORNI 130600Z 32018KT 5000 BLDU NSC 32/07 Q1008

2023/05/13 05:48
KTUP 130548Z AUTO 00000KT 1/2SM FG VV003 19/17 A3004 RMK AO2 $

2023/05/13 05:50
LSZR 130550Z 01005KT 9999 VCSH SCT012 OVC015 11/11 Q1016 RMK A

2023/05/13 05:55
KGAF 130555Z AUTO 07009KT 8SM -DZ FEW080 FEW100 19/09 A3014 RMK AO2

2023/05/13 05:50
BGJN 130550Z AUTO 00000KT 9999NDV -SHSN OVC041/// M02/M06 Q1009

2023/05/13 05:52
PACZ 130552Z AUTO 02003G25KT M1/4SM FZFG VV001 M03/M04 A2990 RMK AO2 SLP134

2023/05/13 05:50
LIPX 130550Z VRB01KT 9999 VCFG SCT030 12/11 Q1017

2023/05/13 05:50
ENSH 130550Z AUTO 22012KT 8000 DZRA BKN007/// OVC014/// 06/05 Q1025 RMK WIND 0150FT 21014KT

2023/05/13 05:56
PAMY 130556Z AUTO 32004KT 1/4SM UP FZFG OVC003 M02/M03 A2994 RMK AO2 SLP137 P0000 60000 T10221033 10017 21022 58013 FZRANO

2023/05/13 05:55
KBKD 130555Z AUTO 28005KT 7SM VCTSRA SCT046 SCT050 OVC060 18/18 A2997 RMK AO2 LTG DSNT ALQS P0012 60103 T01760176 10311 20175 403370175

2023/05/13 05:55
KQAL 130555Z 31017G24KT 0600 DS VV004 27/07 A2985 RMK SLP077 WND DATA ESTMD

2023/05/13 05:55
K2R9 130555Z AUTO 09004KT 5SM VCTSBR SCT026 BKN043 OVC065 26/24 A2992 RMK AO2 LTG DSNT S THRU NW T02560242 10284 20256

2023/05/13 06:00
LFSX 130600Z AUTO 28002KT 1100 0800 R11/1300U BCFG VV/// 10/10 Q1017

2023/05/13 06:00
VAKE 130600Z 26011KT 5000 FU NSC 39/17 Q1008 NOSIG

2023/05/13 06:00
USDA 130600Z 23011MPS 0650 0500NE R22/0650N +SN BLSN VV012 M05/M06 Q1000 R22/450541 NOSIG RMK QFE749/0999

2023/05/13 06:00
DATM 130600Z 17004KT 4000 SA NSC 27/05 Q1009

2023/05/13 06:00
RJOA 130600Z 10010KT 7000 -RA PRFG FEW000 SCT020 BKN060 14/12 Q1015

2023/05/13 06:00
DTTD 130600Z 19030G50KT 0800 SS NSC 29/02 Q1008 RMK SIROCCO

2023/05/13 06:00
DRZA 130600Z 10006KT 4400 DU NSC 30/08 Q1014

2023/05/13 06:15
KGOP 130615Z AUTO 28006G12KT 10SM TSUP SCT016 BKN038 OVC055 19/19 A3001 RMK AO2 LTG DSNT ALQDS

2023/05/13 06:22
PACZ 130622Z AUTO VRB04KT 4SM BCBR SCT003 M02/M03 A2989 RMK AO2 SLP130

2023/05/13 06:30
UGMS 130630Z 07007KT 030V110 9999 -SH RA OVC080 09/07 Q1019

2023/05/13 06:34
KACT 130634Z AUTO 27022G43KT 9SM -RA SQ FEW023 BKN033 OVC065 22/19 A2996 RMK AO2 PK WND 25043/0631 WSHFT 0620 LTG DSNT S-NW RAB32 P0000 T02220194

2023/05/13 06:35
KMNZ 130635Z AUTO 32016G24KT 10SM VCTSDZ SCT012 BKN060 OVC110 18/18 A3000 RMK AO2 LTG DSNT ALQS T01750175

2023/05/12 15:48
DAUH 121548Z 24023G45KT 2000 BLSA BKN033 40/// Q1004

2023/05/12 16:00
UOOO 121600Z 36008MPS 9000 -SHSN DRSN SCT011 BKN016CB M13/M15 Q1018 R01/810260 NOSIG RMK QFE749/0998

2023/05/12 16:00
DAUB 121600Z 11014KT 2500 DRSA FEW040 SCT100 31/07 Q1006

2023/05/12 16:00
MNPC 121600Z 09008KT 6000 VCRA FEW014CB SCT016TCU 31/26 Q1011 TCURA/W

2023/05/12 16:00
CYKO 121600Z 32007KT 3/4SM -FZDZ BR OVC002 M00/M01 A2968 RMK FG5ST3 SLP055

2023/05/12 16:00
CYAS 121600Z 06021KT 2SM -RASG BR OVC003 00/00 A2959 RMK FG4ST4 SLP031

2023/05/12 21:00
MHTG 122100Z 23005KT 7000 TSVCSH SCT034TCU FEW036CB SCT080 27/19 Q1015 A2997 NOSIG

2023/05/12 20:55
YMML 122055Z 34004KT 5000 BCFG MIFG BKN003 08/08 Q1032 RF00.0/000.0

2023/05/12 21:00
CYGL 122100Z 26018G25KT 8SM -SNRA BKN018 OVC028 03/M01 A2999 RMK SC7SC1 SLP168

2023/05/12 21:15
KGYH 122115Z 24010KT 2SM RABR SCT013 OVC036 21/19 A3016

2023/05/12 21:18
MYGF 122118Z 10012KT 070V130 9999 FC FEW020TCU BKN250 28/22 A3005 FCB18 FC/TCU N

2023/05/12 21:20
ENSH 122120Z AUTO 18004KT 0300 R01/0600 DZRAFG 06/06 Q1026 RMK WIND 0150FT 16007KT

2023/05/12 22:55
KDBN 122255Z AUTO 26004KT 10SM -TSDZ SCT019 SCT042 OVC110 21/19 A3014 RMK AO2 LTG DSNT ALQS

2023/05/12 23:15
K13K 122315Z AUTO 16012KT 5SM TSHZ SCT046 BKN055 27/21 A2983 RMK AO2 LTG DSNT ALQDS T02680214

2023/05/12 23:35
KLUV 122335Z AUTO 13025G34KT 1 1/2SM VCTSHZ BKN002 BKN006 20/12 A2984 RMK AO2 LTG DSNT NE THRU SW

2023/05/13 02:55
KX60 130255Z AUTO 00000KT 2SM TSBR SCT023 BKN037 OVC065 19/17 A3014 RMK AO2 VIS 1 1/4V4 LTG DSNT ALQDS P0095 T01880172 60095

2023/05/13 02:49
CYYH 130249Z 19014KT 4SM -SG BR OVC002 M06/M06 A3012 RMK FG4ST4 VIS SE 2 SLP205

2023/05/13 03:00
PATC 130300Z AUTO 18019KT 1/4SM -FZRA FZFG VV002 M03/M03 A2987 RMK AO2 SLP120

2023/05/12 17:45
CYGL 121745Z 29017G25KT 6SM -DZSN OVC010 03/M00 A2996 RMK SF8 SLP158

2023/05/12 17:50
NZSP 121750Z 07005KT 9999 IC FEW018 M66/ A2804 RMK CLN AIR 06008KT ALL WNDS GRID

2023/05/13 14:04
LIPL 131404Z 13010KT 5000 -TS RAGR FEW022CB BKN025 18/13 Q1015 RMK BKN VIS MIN 5000 WIND THR31 /////KT WIND THR13 13010KT WHT

2023/05/13 14:33
LTCK 131433Z 33016KT 8000 -TSGRRA FEW020CB BKN030 16/06 Q1012

2023/05/13 00:55
K4BM 130055Z AUTO 04007KT M1/4SM -TSSN OVC001 01/00 A3037 RMK AO2 LTG DSNT NE THRU S

2023/05/13 01:15
K4BM 130115Z AUTO 02005KT M1/4SM VCTSSN OVC001 01/00 A3039 RMK AO2 LTG DSNT NE

2023/05/12 19:50
ENSH 121950Z AUTO 23007KT 2500 DZRABR 06/06 Q1026 RMK WIND 0150FT 19009KT

2023/05/12 19:50
MSSS 121950Z 28006KT 5000 -TSRAHZ SCT040 SCT040CB 26/21 Q1013 A2992

2023/05/12 20:00
FKYS 122000Z 09006KT 060V130 1600 -TSRADZ FEW003 BKN006 SCT016CB 21/21 Q1019 RESQ RERA TEMPO 0800 TSRA

2023/05/13 13:00
SCSE 131300Z 10004KT 4000 -DZBR OVC007 13/13 Q1015

2023/05/13 12:55
LIQC 131255Z 08010G26KT 1000 +TSGR OVC030CB 16/13 Q1012 RMK OVC QUK 3 QUL 2 SE VIS MAR 1000 M VIS MIN 1000

2023/05/13 13:27
CYKG 131327Z 34033G41KT 12SM DRSN VCBLSN FEW005 BKN012 M06/M08 A3010 RMK ST2ST3 VIS S 3 SLP210

2023/05/13 00:00
MGQZ 130000Z 34008KT 1000 +TSRA GR BKN015 SCT020CB 16/15 QFE772.3 CB/TS/LTNG/SE/S/W/NW/SBR STN APCH CLSD

2023/05/13 04:55
UAUU 130455Z 33004MPS 9000 -SHRAGR BKN043CB 12/07 Q1004 NOSIG RMK QFE738/0984

2023/05/13 09:55
PACZ 130955Z AUTO 22003G13KT 10SM BC BKN003 BKN120 M03/M04 A2984 RMK AO2 SLP115 T10311038

2023/05/13 10:14
CYGW 131014Z AUTO 32012G19KT 1SM -SN -FZUP OVC004 M00/M01 A3015 RMK ICE SLP214

2023/05/13 12:37
OITT 131237Z 27019KT 9999 TS SHGR FEW030TCU BKN032CB SCT080 26/02 Q1010 A2984
