2023/05/12 20:50
KQEQ 122050Z AUTO 19001KT M0400 -SHRA FG FEW001 BKN003 OVC014 14/16 / RMK A02 TSNO

2023/05/12 20:50
ENFB 122050Z AUTO 33007KT 9999NDV BKN011/// ///// Q//// W///S3

2023/05/12 21:00
CYUA 122100Z AUTO 31009G18KT ////SM OVC036 ///// A////

2023/05/12 21:00
SCRM 122100Z 26027G37KT 8000 BKN015 M01/M05 Q0982 NOSIG

2023/05/12 20:46
YPPH 122046Z 07007KT 9000 -SHRA FEW004 BKN015 BKN023 13/12 Q1018

2023/05/12 20:55
KJXI 122055Z AUTO 17008G14KT 10SM CLR 30/20 A2995 RMK AO2 T02990197

2023/05/12 20:47
KHSA 122047Z 13009KT 10SM BKN023 BKN029 28/22 A3004

2023/05/12 21:00
MHTG 122100Z 23005KT 7000 TSVCSH SCT034TCU FEW036CB SCT080 27/19 Q1015 A2997 NOSIG

2023/11/08 11:50
EGPK 081150Z 24019KT 9999 FEW025 10/04 Q994
