2023/05/13 05:50
LOWG 130550Z AUTO 08004KT 050V110 9999 -SHRA FEW005 BKN010 10/09 Q1019 REDZ TEMPO SCT005 BKN008

2023/05/13 05:50
LICB 130550Z AUTO 11006KT 090V150 9999 -RA BKN037/// 17/16 Q1014 RERA

2023/05/13 05:50
LTAR 130550Z 30006KT 9999 SCT003 BKN030 BKN080 08/07 Q1017 RESHRA

2023/05/13 05:55
EHAK 130555Z AUTO 02020KT 330V060 0150 -RA VV000 07/07 Q1027 RERAUPRA

2023/05/13 05:50
LTCK 130550Z 17006KT 9000 SCT030 BKN070 14/10 Q1013 RETSRA

2023/05/13 06:00
UTDD 130600Z 08003MPS 040V130 9999 SCT066CB BKN100 22/11 Q1019 RETS R09/CLRD// TEMPO TS RMK QFE696/0928

2023/05/12 16:30
DABC 121630Z 05005KT 9999 TS SCT016 FEW026CB SCT040 17/16 Q1011 REGRRA

2023/05/12 21:00
FKYS 122100Z 14004KT 090V160 6000 -TSRA FEW003 BKN006 SCT016CB 21/21 Q1019 RESQ NOSIG

2023/05/12 22:55
LIVP 122255Z 20009KT 0000 FG VV/// 00/M01 Q1016 RESN

2023/05/13 02:55
EHAK 130255Z AUTO 02018KT 320V070 0350 RA VV000 07/07 Q1026 REUP RERA REDZ

2023/05/13 00:55
EHAK 130055Z AUTO 02018KT 320V060 0450 RADZ VV000 07/07 Q1026 REUPRA

2023/05/13 01:20
EKVG 130120Z AUTO VRB04KT 1500 BR OVC002/// 09/08 Q1022 REDZRA RMK OVC001/// WIND SKEID VRB05G22KT

2023/05/13 12:50
LTCT 131250Z 10005KT 060V160 9999 FEW025CB BKN035 BKN080 20/10 Q1010 RESHRATS

2023/05/13 13:30
UTTT 131330Z 26004KT 9999 TS BKN066CB 26/11 Q1014 REDS R26R/CLRD70 NOSIG

2023/05/12 23:50
ESNN 122350Z AUTO VRB03KT 9999 -RA BKN076/// OVC094/// 10/08 Q1026 RESHUP

2023/05/13 00:00
HKEM 130000Z 21002KT 9999 BKN017 18/17 RESH

2023/05/12 17:30
LERS 121730Z 05011KT 6000 2000 TSRA FEW010 SCT020 SCT025CB 13/11 Q1014 RESHGR
