2023/05/13 03:50
ENHM 130350Z AUTO 33007KT //// NCD 06/06 Q1028 W08/S/

2023/05/13 03:50
ENLA 130350Z AUTO 35011KT 9999NDV OVC003/// 07/07 Q1027 W///S3

2023/05/13 03:50
ENQA 130350Z AUTO 34016KT 0200NDV FG NCD 06/06 Q1028 W10/S3
