2023/05/12 16:50
LTCF 121650Z 23004KT 9999 SCT035 BKN070 14/06 Q1020 NOSIG RMK RWY24 22006KT

2023/05/13 11:00
LFLB 131100Z AUTO 06003KT 030V090 9999 -RA FEW036/// SCT056/// OVC068/// ///TCU 14/12 Q1016 TEMPO VRB15G25KT 2000 TSRA BKN025CB

2023/05/13 06:00
SKRG 130600Z VRB02KT 9999 SCT008 SCT090 16/16 Q1024 TEMPO FM0700 5000 BCFG BKN005 RMK A3026

2023/05/13 01:00
VTUK 130100Z 11005KT 070V150 9999 VCSH BKN009 BKN030 BKN100 26/24 Q1013 TEMPO FM0120 TL0230 -TSRA

2023/05/13 09:00
LFOK 130900Z AUTO 01009KT CAVOK 16/11 Q1019 BECMG SCT040TCU

2023/05/13 07:24
SMJP 130724Z 00000KT 1000 BR SCT000 24/24 Q//// BECMG FM0735 0800 FG

2023/05/13 07:00
VTUV 130700Z 20003KT 160V260 8000 -TSRA FEW018CB SCT025 BKN100 24/24 Q1010 RERA BECMG TL0800 NSW

2023/05/12 20:43
SEQM 122043Z 26005KT 220V300 9999 TSRA FEW030CB BKN033 BKN300 18/12 Q1023 BECMG AT2200 -RA RMK A3023

2023/05/12 23:50
LTCG 122350Z 35004KT 290V010 1900 RA BR BKN003 BKN025 12/12 Q1017 BECMG TL0040 8000 NSW BKN008 BKN028 TEMPO FM0050 3500 BKN004 BKN025

2023/05/13 11:50
LTCI 131150Z 33010KT 9999 FEW020TCU SCT030 BKN070 20/06 Q1013 BECMG TL1250 20012KT TEMPO -TSRA RMK RWY21 32009KT 290V350 1TCU020 3CU030 5AC070

2023/05/13 02:30
WAQQ 130230Z 03005KT 9000 -RA BKN015 27/25 Q1012 BECMG AT 0400 9999 NSW
