2023/05/12 20:49
KFME 122049Z AUTO 15005KT A3007 RMK AO1

2023/05/12 21:00
SVMG 122100Z 09015KT 9999 SCT060 ///// Q1011

2023/05/12 17:50
NZSP 121750Z 07005KT 9999 IC FEW018 M66/ A2804 RMK CLN AIR 06008KT ALL WNDS GRID

2023/05/13 12:53
PAKV 131253Z AUTO 23004KT 10SM CLR M01/ A2991 RMK AO2 SLP132 T1011 TSNO $

2023/05/12 15:55
PAEH 121555Z AUTO 00000KT M1/4SM FG VV003 00/ A2998

2023/05/12 20:55
EHDV 122055Z AUTO 02022KT 0800 HZ VV000 08/// Q1026

2023/05/12 21:00
CWGB 122100Z AUTO 06006KT 18/ RMK AO1 SLP237 T0182 58006

2023/05/12 21:00
DAUH 122100Z VRB08G26KT 5000 BKN033 37/// Q1004

2023/05/12 21:30
USDA 122130Z AUTO 20009MPS 1400 0800NW R22/0800U // ///003/// M15/M16 Q1011 RMK QFE758/1010

2023/05/12 20:50
ENSB 122050Z 12012KT 9999 BKN028 M05/M09 Q1012 RMK WIND 1400FT 19003KT

2023/05/12 21:00
CYLA 122100Z 01009KT 3SM -RA BR OVC004 00/00 A2962 RMK FG1ST7 LAST STFD OBS/ NXT 131200Z SLP036

2023/05/12 20:51
KMYL 122051Z AUTO 36010KT 10SM CLR 19/M03 A3025 RMK AO2 SLP227 T01891028 57001

2023/05/12 20:55
KRRL 122055Z AUTO 20005KT 10SM -RA SCT035 SCT050 OVC070 17/13 A3012 RMK AO2 T01680133 TSNO

2023/05/02 12:00
OPFA 021200Z 31004KT 5000 FU SCT040 BKN100 23/1 Q1020 NOSIG

2023/05/02 12:00
CWIL 021200Z AUTO ///// ////SM ////// M31/M33 A3007

2023/11/09 02:00
SVBC 090200Z 12008KT 9999 BKN013 27/XX Q1011
