2023/03/02 12:15
KC62 021215Z AUTO 30007KT 10SM OVC016 02/00 A2985 RMK AO2 T00200003

2023/03/02 11:51
PTKK 021151Z 04007KT 15SM FEW014 SCT300 27/23 A2981 RMK SLP098 8/101 T02740234 10294 20274 52015

2023/03/02 11:45
KEZP 021145Z AUTO 00000KT 8SM SCT014 23/22 A2978 RMK A01

2023/03/02 11:47
CYHU 021147Z AUTO 04010KT 3SM -SN BKN005 OVC022 M00/M01 A2968 RMK SLP052

2023/03/02 12:08
KPTK 021208Z COR 29011KT 1 SM BR OVC004 01/01 A2977 RMK AO2 SFC VIS 1 3/4 T00110006

2023/03/02 11:55
KLDJ 021155Z AUTO 36004KT 1 1/4SM BR OVC003 05/04 A2973 RMK AO2 T00450040 10056 20043

2023/03/02 11:45
KNFE 021145Z AUTO 23005KT 2 1/2SM +RA FEW008 BKN043 OVC060 18/15 A2979 RMK AO2 TSE23 P0021 T01780150 $

2023/03/02 11:45
KSWF 021145Z 00000KT 1/2SM R09/5000FT -RA FG OVC003 02/02 A2967 RMK PRESFR

2023/03/02 11:52
CYKF 021152Z AUTO 32007KT 5/8SM BR OVC003 M03/M03 A2974 RMK SLP087

2023/03/02 11:55
KINF 021155Z AUTO 00000KT M1/4SM -RA OVC001 16/16 A3001 RMK AO2

2023/03/02 11:45
YPTN 021145Z AUTO 33009KT 9999 // BKN014 OVC039 26/24 Q1004

2023/03/02 12:00
OJAI 021200Z 27004KT 5000 HZ NSC 26/M02 Q1016 NOSIG

2023/03/02 11:50
EDBC 021150Z 35007KT 0450 0400S R07/0600U FZFG VV/// M01/M01 Q1024

2023/03/02 11:55
LIBQ 021155Z 26006KT 220V290 0000 -SN FG VV/// 02/00 Q1013

2023/03/02 11:55
KEMV 021155Z AUTO RMK AO2 6//// 7//// 10145 20071 PWINO PNO TSNO

2023/03/02 12:00
LFKF 021200Z AUTO 23007KT 9000 4400 RA BKN036/// OVC044/// ///TCU 11/08 Q1012 TEMPO 4500 SHRA BKN030 SCT045CB OVC060

2023/03/02 12:20
EFVA 021220Z AUTO 34005KT 2100 1100 R34/2000D -SHSN OVC007 01/M00 Q1004 RESHRA

2023/03/02 11:50
EDGS 021150Z 07009KT 030V090 CAVOK 05/M05 Q1019

2023/03/02 12:00
LFMY 021200Z AUTO 35009KT 320V020 CAVOK 12/02 Q1015 NOSIG

2023/03/02 11:50
ENDU 021150Z 23005KT 170V270 9000 4000N -SHSNRA FEW008 BKN020 01/M01 Q0997 TEMPO 1000 SHSN VV007 RMK WIND 1100FT 23010KT WIND 2200FT 26019KT

2023/03/02 11:50
EDBC 021150Z 35007KT 0450 0400S R07/0600U FZFG VV/// M01/M01 Q1024

2023/03/02 12:00
SPJC 021200Z 19003KT 9999 3300SE NSC 21/19 Q1010 NOSIG RMK TN20.9 FU W PP000

2023/03/02 12:00
SKRG 021200Z 36003KT 9999 5000S BCFG FEW010 BKN080 14/14 Q1024 BECMG AT1240 9999 NSW SCT013 RMK A3025

2023/03/02 12:00
LQBK 021200Z VRB01KT 2500 1000N R16/0400N BR SCT002 OVC005 04/04 Q1020 NOSIG

2023/03/02 12:20
ENSK 021220Z 28011KT 4000 2000NE -SN VV009 00/M00 Q1001

2023/03/02 11:50
LOXT 021150Z 04008KT 20KM SKC 10/M00 Q1020 NOSIG RMK WIND INFO EST/SKC

2023/05/02 12:00
OSLK 021200Z 24004KT KAVOK 26/06 Q1012

2023/05/02 11:53
KMWN 021153Z 21033KT 1/16SM -SN FZFG BLSN VV001 M06/M06 RMK VRY LGT ICG 60001 70002 4/030 931001 11058 21100
