2023/03/02 12:15
K74V 021215Z AUTO 24011KT 10SM M06/M07 A2988 RMK AO2

2023/03/02 12:10
KQEL 021210Z AUTO 04002KT 9999 CLR M01/M11 A3035 RMK A02 TSNO

2023/03/02 12:00
EQPH 021200Z AUTO 18007KT 140V240 CAVOK 26/M05 Q1014

2023/03/02 12:15
KDVO 021215Z AUTO VRB04KT 10SM CLR 08/M02 A3011 RMK AO2

2023/03/02 11:50
LSGG 021150Z VRB03KT 9999 BKN027 05/M02 Q1017 NOSIG

2023/03/02 12:00
SCCY 021200Z VRB07KT 9999 FEW020 BKN030 12/08 Q1007

2023/03/02 12:35
KI16 021235Z AUTO 3SM BR SCT001 BKN008 BKN020 13/12 A2987 RMK AO2 T01250118

2023/03/02 12:35
KPMU 021235Z AUTO 00000KT 3SM +RA BKN003 OVC025 16/16 A2981 RMK AO2 LTG DSNT NE-S

2023/03/02 11:52
KORE 021152Z AUTO 00000KT 5SM RA BR OVC012 01/00 A2974 RMK AO2 SLP078 P0006 60024 70024 T00110000 10011 20006 55018

2023/03/02 11:55
LIBY 021155Z ///10KT 9999 BKN020 14/11 Q1015 RMK BKN QUK 3 QUL 1 N VIS MAR 20 KM VIS MIN 9999

2023/03/02 12:00
FOGO 021200Z /////KT 9999 SCT012 31/20 Q////

2023/03/02 12:00
SVVA 021200Z /////KT 9999 FEW016 24/20 Q1014

2023/03/02 12:00
URMG 021200Z 29004MPS 9999 OVC047 06/M02 Q1019 R26/190060 NOSIG RMK QFE749/0999

2023/03/02 12:30
UTDK 021230Z 25001MPS 9999 NSC 19/06 Q1020 R01/09//70 RMK QFE707/0943

2023/03/02 11:51
KBAZ 021151Z AUTO 12007KT 6SM BR BKN011 OVC016 22/20 A2964 RMK AO2 SLP029 60000 T02170200 10233 20200 56041

2023/03/02 12:19
KIJD 021219Z AUTO 00000KT 1 3/4SM -RA BR OVC006 03/03 A2971 RMK AO2 UPB1156E01RAB01 P0000 T00280028

2023/03/02 11:53
PAGY 021153Z AUTO 21029G36KT 10SM FEW027 FEW050 BKN065 02/M02 A2890 RMK AO2 PK WND 22043/1135 SNB08E11 SLP788 P0000 60010 70057 T00221017 10028 21033 53045 TSNO

2023/03/02 09:00
AAAA 020900Z 100P99KT 10SM FEW010 05/01 A2990

2023/03/02 09:00
AAAA 020900Z 100P49MPS 10SM FEW010 05/01 A2990

2023/03/02 12:15
KHCR 021215Z AUTO 10SM -SN SCT036 OVC047 M07/M11 A2986 RMK AO2

2023/03/02 11:50
EGYE 021150Z /////KT 9999 BKN020 ///// Q1027 RMK WHT

2023/03/02 12:00
CWWL 021200Z AUTO 27017G22KT 03/01 RMK AO1 PK WND 27032/1105 SLP996 T00330005 50018

2023/03/02 11:49
KGVL 021149Z AUTO 34010G19KT 10SM -RA FEW023 SCT029 OVC036 16/13 A2986 RMK AO2 PK WND 34026/1116 P0002

2023/03/02 11:55
K5T9 021155Z AUTO 12011G19KT 8SM OVC012 22/21 A2959 RMK A01

2023/03/02 12:00
UNKL 021200Z 22005G11MPS CAVOK 08/M05 Q1007 R29/190050 NOSIG RMK QFE730

2023/03/02 12:00
UNTT 021200Z 23009G17MPS 3600 -SHRASN SCT016CB BKN028 02/01 Q1001 R21/////// NOSIG RMK QFE736

2023/03/02 12:00
UMGG 021200Z 26006G09MPS 9999 OVC016 02/M02 Q1018 NOSIG

2019/09/18 23:31
TXKF 182331Z 26070GP99KT 0550 R12/0600N -SHRA BLPY OVC009TCU 22/21 Q0980 RMK TCU ALQDS

2023/03/02 09:00
AAAA 020900Z 10030GP49MPS 10SM FEW010 05/01 A2990

2023/03/02 09:00
AAAA 020900Z 100P99GP99KT 10SM FEW010 05/01 A2990

2023/03/02 09:00
AAAA 020900Z 100P49GP49MPS 10SM FEW010 05/01 A2990

2023/03/02 09:00
AAAA 020900Z 10030G//KT 10SM FEW010 05/01 A2990

2023/03/02 09:00
AAAA 020900Z 10030G//MPS 10SM FEW010 05/01 A2990

2023/03/02 12:00
LDZD 021200Z 07011KT 050V110 9999 FEW033 SCT050 14/04 Q1015 NOSIG

2023/03/02 12:00
CYQT 021200Z 29003KT 240V310 20SM FEW140 BKN230 M19/M22 A3010 RMK AC1CI4 SLP213

2023/03/02 12:00
LFOZ 021200Z AUTO 33007KT 290V030 CAVOK 08/M01 Q1019
