2023/05/12 16:00
GCTS 121600Z 07023KT 9999 FEW030 24/14 Q1015 WS R07 NOSIG

2023/05/12 16:00
LEMD 121600Z 04011KT 340V120 9999 FEW050TCU 16/03 Q1016 WS R32R NOSIG

2023/05/13 14:00
UUBW 131400Z 01004MPS 300V050 CAVOK 23/02 Q1019 WS ALL RWY R30/010060 NOSIG

2023/05/13 09:36
LTAI 130936Z 33010KT 260V010 9999 FEW030 28/12 Q1013 WS R36R BECMG TL1100 19012KT
